[Satellite]
VERSION=1.1
NAME=IRIDIUM 90 [B]
NICKNAME=IRIDIUM 90 [B]
TLE1=1 27373U 02005B   18020.86969553  .00000144  00000-0  37026-4 0  9992
TLE2=2 27373  86.4460 259.0525 0002185  82.4179 277.7270 14.42949108842678
